[{"OBJECT_NAME":"STARLINK-5980","OBJECT_ID":"2023-058K","EPOCH":"2026-03-09T22:28:35.452416","MEAN_MOTION":15.01262102,"ECCENTRICITY":0.00033832,"INCLINATION":97.6043,"RA_OF_ASC_NODE":70.3963,"ARG_OF_PERICENTER":51.2191,"MEAN_ANOMALY":308.9335,"EPHEMERIS_TYPE":0,"CLASSIFICATION_TYPE":"U","NORAD_CAT_ID":56326,"ELEMENT_SET_NO":999,"REV_AT_EPOCH":15781,"BSTAR":1.5938359e-5,"MEAN_MOTION_DOT":1.46e-6,"MEAN_MOTION_DDOT":0},{"OBJECT_NAME":"OBJECT U","OBJECT_ID":"2017-042U","EPOCH":"2026-03-09T22:07:56.164512","MEAN_MOTION":15.00675308,"ECCENTRICITY":0.00148173,"INCLINATION":97.4238,"RA_OF_ASC_NODE":229.7372,"ARG_OF_PERICENTER":56.7191,"MEAN_ANOMALY":303.5451,"EPHEMERIS_TYPE":0,"CLASSIFICATION_TYPE":"U","NORAD_CAT_ID":42843,"ELEMENT_SET_NO":999,"REV_AT_EPOCH":47173,"BSTAR":0.00030670501,"MEAN_MOTION_DOT":3.834e-5,"MEAN_MOTION_DDOT":0}]
